SL-16 R/B               
1 24298U 96051B   26156.27528725  .00000133  00000+0  98873-4 0  9999
2 24298  70.7634 349.8600 0014444 355.1089   4.9887 14.12442026534017
ORBVIEW 2 (SEASTAR)     
1 24883U 97037A   26156.44988054  .00000280  00000+0  11358-3 0  9993
2 24883  98.8680 323.1444 0002796 140.4652 219.6737 14.35547281521062
SL-16 R/B               
1 25400U 98043G   26156.57562354  .00000065  00000+0  46311-4 0  9991
2 25400  98.8359 110.6353 0010810 116.7188 243.5099 14.26066591451514
SL-16 R/B               
1 25407U 98045B   26156.29902897  .00000187  00000+0  11869-3 0  9993
2 25407  71.0121 357.3319 0009546 255.6711 104.3353 14.16203822439503
CZ-4B R/B               
1 25732U 99025C   26156.50918406  .00000053  00000+0  46288-4 0  9996
2 25732  98.6489 198.6411 0038262  92.3059  27.3211 14.18281470400617
OKEAN-O                 
1 25860U 99039A   26156.45211617  .00000656  00000+0  92554-4 0  9993
2 25860  97.9320 215.3842 0001880  81.1065 279.0360 14.80452522447371
SL-16 R/B               
1 25861U 99039B   26156.41730161  .00000548  00000+0  76091-4 0  9998
2 25861  97.9842 215.3132 0014178 337.8996  22.1603 14.81833180449857
DELTA 2 R/B             
1 25876U 99041E   26156.70907517  .00000687  00000+0  14823-3 0  9998
2 25876  51.7659 309.6462 0501036 248.0872 106.6086 14.11994346375463
HELIOS 1B               
1 25977U 99064A   26156.47789322  .00001628  00000+0  18385-3 0  9994
2 25977  98.1623  61.2785 0002289 107.8860 252.2605 14.87974546698315
SL-16 R/B               
1 26070U 00006B   26156.61977443 -.00000106  00000+0 -29822-4 0  9997
2 26070  71.0034 272.9467 0014967  41.5061 318.7196 14.15837272361008
ENVISAT                 
1 27386U 02009A   26156.65925344  .00000103  00000+0  47268-4 0  9999
2 27386  98.3829 108.2352 0001350  91.9876  80.9361 14.39061995271821
IDEFIX & ARIANE 42P R/B 
1 27422U 02021B   26156.59322257  .00000247  00000+0  11022-3 0  9998
2 27422  98.5941  94.2022 0010670 291.7791  68.2256 14.31076536256596
CZ-4B R/B               
1 27432U 02024C   26156.07555442  .00000052  00000+0  49124-4 0  9998
2 27432  98.8704 208.9736 0050952 133.9745 293.4448 14.14562369241590
MIDORI II (ADEOS-II)    
1 27597U 02056A   26156.58777887  .00000300  00000+0  13578-3 0  9999
2 27597  98.7873 115.7496 0002224  93.7779 266.3657 14.29343082222859
H-2A R/B                
1 27601U 02056E   26156.65881993  .00000226  00000+0  94026-4 0  9992
2 27601  98.3307 113.7537 0068830 259.4331 274.1408 14.33816935226714
CZ-4B R/B               
1 28059U 03049C   26156.47262632  .00000361  00000+0  94451-4 0  9998
2 28059  98.6895 154.8528 0047418 325.0742  34.7345 14.55092077199365
CZ-2C R/B               
1 28222U 04012C   26155.72957243  .00094695  00000+0  59019-3 0  9990
2 28222  97.7083 229.9670 0008803 340.1675  19.9247 15.76591401217935
SL-16 R/B               
1 28353U 04021B   26156.06954731 -.00000125  00000+0 -40409-4 0  9993
2 28353  71.0024  49.1200 0007472 268.4538  91.5729 14.14613082135191
CZ-4B R/B               
1 28415U 04035C   26156.42988819  .00008537  00000+0  28820-3 0  9996
2 28415  97.3366 189.6370 0031426  20.0933 340.1537 15.30444803193326
CZ-2C R/B               
1 28480U 04046B   26156.34177095  .00000094  00000+0  50693-4 0  9991
2 28480  98.1953  65.8617 0138100 255.5493 103.0331 14.27023850121005
ARIANE 5 R/B            
1 28499U 04049H   26156.47689029  .00000888  00000+0  10357-3 0  9996
2 28499  98.2714 328.2782 0085102  66.9677 294.0483 14.85431987158828
CZ-2D R/B               
1 28738U 05024B   26156.29230277  .00052198  00000+0  46636-3 0  9993
2 28738  97.3496 175.1383 0005312  79.1543 281.0316 15.68231466153479
ALOS (DAICHI)           
1 28931U 06002A   26156.58732852  .00001221  00000+0  21186-3 0  9997
2 28931  98.1318 112.1914 0001872  64.3373 295.8026 14.70026339 86391
H-2A R/B                
1 28932U 06002B   26156.38710427  .00006448  00000+0  31189-3 0  9990
2 28932  98.2558 311.1509 0049776 303.3865  56.2609 15.17909872107739
RESURS-DK 1             
1 29228U 06021A   26156.33488814  .00002390  00000+0  14050-3 0  9997
2 29228  69.9334  10.2328 0006160 301.8754  58.1812 15.13161587100785
CZ-4B R/B               
1 29507U 06046C   26156.38561117  .00004277  00000+0  21303-3 0  9992
2 29507  97.5456 201.0298 0031630 325.6747  34.2442 15.17693281 73349
CZ-2C R/B               
1 31114U 07010B   26156.57681632  .00000110  00000+0  69163-4 0  9996
2 31114  98.4090 265.4964 0059677  39.6770 320.8751 14.20273482992193
